[{"OBJECT_NAME":"TRANSPORTER-12 OBJECT BA","OBJECT_ID":"2025-009BA","EPOCH":"2026-03-09T16:49:42.568896","MEAN_MOTION":15.27214003,"ECCENTRICITY":4.03e-5,"INCLINATION":97.3985,"RA_OF_ASC_NODE":151.139,"ARG_OF_PERICENTER":234.6623,"MEAN_ANOMALY":125.4579,"EPHEMERIS_TYPE":0,"CLASSIFICATION_TYPE":"U","NORAD_CAT_ID":62657,"ELEMENT_SET_NO":999,"REV_AT_EPOCH":6373,"BSTAR":0.00042732654,"MEAN_MOTION_DOT":0.0001133,"MEAN_MOTION_DDOT":0},{"OBJECT_NAME":"STARLINK-33665","OBJECT_ID":"2025-053S","EPOCH":"2026-03-09T12:31:16.520736","MEAN_MOTION":15.2761666,"ECCENTRICITY":0.00016639,"INCLINATION":43.0015,"RA_OF_ASC_NODE":242.2115,"ARG_OF_PERICENTER":260.9739,"MEAN_ANOMALY":99.0924,"EPHEMERIS_TYPE":0,"CLASSIFICATION_TYPE":"U","NORAD_CAT_ID":63281,"ELEMENT_SET_NO":999,"REV_AT_EPOCH":5617,"BSTAR":0.00075891861,"MEAN_MOTION_DOT":0.00020704,"MEAN_MOTION_DDOT":0}]
