TRANSPORTER-12 OBJECT BA
1 62657U 25009BA  26068.70118713  .00011330  00000+0  42733-3 0  9991
2 62657  97.3985 151.1390 0000403 234.6623 125.4579 15.27214003 63739
STARLINK-33665          
1 63281U 25053S   26068.52171899  .00020704  00000+0  75892-3 0  9995
2 63281  43.0015 242.2115 0001663 260.9739  99.0924 15.27616660 56176
